1 44718U 19074F   22365.29460371  .00008693  00000-0  60146-3 0  9991
2 44718  53.0533  13.8006 0002031  43.6591 316.4558 15.06417534173242
1 44718U 19074F   22365.29460371  .00008693  00000-0  60146-3 0  9991
2 44718  53.0533  13.8006 0002031  43.6591 316.4558 15.06417534173411
1 44718U 19074F   22365.75903216  .00003879  00000-0  27912-3 0  9997
2 44718  53.0523  11.7177 0002010  34.7007 325.4112 15.06407165173310
1 44718U 19074F   23001.42250511 -.00003321  00000-0 -20419-3 0  9991
2 44718  53.0533   8.7373 0002131  43.5727 316.5430 15.06393654173586
1 44718U 19074F   23001.48884984 -.00003512  00000-0 -21702-3 0  9992
2 44718  53.0532   8.4393 0002101  43.7217 316.3938 15.06395670173421
1 44718U 19074F   23002.28501243  .00007552  00000-0  52531-3 0  9995
2 44718  53.0531   4.8656 0002155  43.0283 317.0874 15.06403271173713
1 44718U 19074F   23002.48405575  .00000993  00000-0  85567-4 0  9996
2 44718  53.0530   3.9717 0002236  44.9577 315.1593 15.06393852173570
1 44718U 19074F   23002.68309605  .00001047  00000-0  89199-4 0  9991
2 44718  53.0529   3.0785 0002198  43.2189 316.8973 15.06396615173606
1 44718U 19074F   23002.68309605  .00001047  00000-0  89199-4 0  9991
2 44718  53.0529   3.0785 0002198  43.2189 316.8973 15.06396615173774
1 44718U 19074F   23003.47926238  .00003026  00000-0  22200-3 0  9994
2 44718  53.0531 359.5042 0002065  45.5850 314.5308 15.06394794173723
1 44718U 19074F   23004.07638787 -.00000919  00000-0 -42820-4 0  9991
2 44718  53.0529 356.8234 0002053  47.9874 312.1289 15.06389083173987
1 44718U 19074F   23004.40811944  .00003070  00000-0  22492-3 0  9997
2 44718  53.0530 355.3342 0002064  46.7222 313.3939 15.06400400173868
1 44718U 19074F   23004.40811944  .00003070  00000-0  22492-3 0  9997
2 44718  53.0530 355.3342 0002064  46.7222 313.3939 15.06400400174038
1 44718U 19074F   23004.87254047  .00008930  00000-0  61732-3 0  9993
2 44718  53.0531 353.2490 0002058  46.1167 313.9991 15.06418496173931
1 44718U 19074F   23005.00523390  .00017414  00000-0  11842-2 0  9992
2 44718  53.0527 352.6533 0002045  47.0127 313.1033 15.06427507174123
1 44718U 19074F   23005.33696201  .00009258  00000-0  63917-3 0  9998
2 44718  53.0528 351.1636 0001747  60.2468 299.8695 15.06426561174005
1 44718U 19074F   23005.33696201  .00009258  00000-0  63917-3 0  9998
2 44718  53.0528 351.1636 0001747  60.2468 299.8695 15.06426561174173
1 44718U 19074F   23005.66869255  .00001881  00000-0  14505-3 0  9998
2 44718  53.0531 349.6742 0002045  47.0374 313.0786 15.06420588174058
1 44718U 19074F   23006.19946834  .00000418  00000-0  46946-4 0  9996
2 44718  53.0530 347.2919 0002169  37.2562 322.8577 15.06408883174302
1 44718U 19074F   23006.33216345 -.00003101  00000-0 -18935-3 0  9999
2 44718  53.0527 346.6962 0001883  46.8409 313.2737 15.06400284174159
1 44718U 19074F   23006.33216345 -.00003101  00000-0 -18935-3 0  9999
2 44718  53.0527 346.6962 0001883  46.8409 313.2737 15.06400284174328
1 44718U 19074F   23007.19468090  .00005587  00000-0  39370-3 0  9994
2 44718  53.0529 342.8229 0001853  54.6260 305.4902 15.06394458174280
1 44718U 19074F   23007.19468090  .00005587  00000-0  39370-3 0  9994
2 44718  53.0529 342.8229 0001853  54.6260 305.4902 15.06394458174459
1 44718U 19074F   23007.79180913  .00005519  00000-0  38924-3 0  9994
2 44718  53.0503 340.1420 0002293  55.9484 304.1722 15.06391098174549
1 44718U 19074F   23007.92450403  .00002719  00000-0  20146-3 0  9999
2 44718  53.0530 339.5481 0002015  50.9451 309.1717 15.06388718174396
1 44718U 19074F   23008.32258655  .00002706  00000-0  20052-3 0  9991
2 44718  53.0518 337.7607 0002152  54.9301 305.1890 15.06390847174453
1 44718U 19074F   23009.18509107  .00003875  00000-0  27890-3 0  9992
2 44718  53.0526 333.8879 0002135  55.4950 304.6240 15.06405082174751
1 44718U 19074F   23009.58317423  .00001915  00000-0  14741-3 0  9998
2 44718  53.0529 332.1015 0002096  53.1177 307.0004 15.06399589174647
1 44718U 19074F   23009.58317423  .00001915  00000-0  14741-3 0  9998
2 44718  53.0529 332.1015 0002096  53.1177 307.0004 15.06399589174816
1 44718U 19074F   23009.91491255  .00008105  00000-0  56246-3 0  9995
2 44718  53.0533 330.6113 0001838  47.1102 313.0041 15.06393188174690
1 44718U 19074F   23010.57839625 -.00007297  00000-0 -47193-3 0  9990
2 44718  53.0541 327.6335 0001485  51.2846 308.8275 15.06364738174791
1 44718U 19074F   23010.84378269 -.00006119  00000-0 -39267-3 0  9997
2 44718  53.0541 326.4425 0000689 351.8343   8.2635 15.06366005175009
1 44718U 19074F   23010.91012277 -.00000454  00000-0 -11585-4 0  9999
2 44718  53.0548 326.1461 0001506  52.9791 307.1335 15.06387760174848
1 44718U 19074F   23011.10916150  .00001269  00000-0  10406-3 0  9997
2 44718  53.0534 325.2515 0001572  56.5248 303.5891 15.06393865175046
1 44718U 19074F   23011.57358960  .00001668  00000-0  13087-3 0  9998
2 44718  53.0536 323.1655 0001459  58.9642 301.1490 15.06395935174945
1 44718U 19074F   23011.83898161  .00000891  00000-0  78713-4 0  9994
2 44718  53.0530 321.9749 0001418  59.6558 300.4571 15.06390118174982
1 44718U 19074F   23012.83419001  .00003562  00000-0  25801-3 0  9994
2 44718  53.0539 317.5073 0000337  67.9179 292.1845 15.06377168175131
1 44718U 19074F   23012.83419001  .00003562  00000-0  25801-3 0  9994
2 44718  53.0539 317.5073 0000337  67.9179 292.1845 15.06377168175300
1 44718U 19074F   23012.96688393 -.00000306  00000-0 -16216-5 0  9997
2 44718  53.0540 316.9125 0001647  76.2100 283.9072 15.06394040175325
1 44718U 19074F   23013.56400012  .00000126  00000-0  27366-4 0  9999
2 44718  53.0546 314.2307 0001109  83.9983 276.1133 15.06398707175248
1 44718U 19074F   23014.09477877  .00000541  00000-0  55203-4 0  9993
2 44718  53.0529 311.8470 0001217  82.6946 277.4181 15.06392968175495
1 44718U 19074F   23014.22746558  .00000605  00000-0  59481-4 0  9996
2 44718  53.0534 311.2505 0001346  97.0399 263.0743 15.06402897175510
1 44718U 19074F   23015.22266414  .00000654  00000-0  62755-4 0  9997
2 44718  53.0546 306.7823 0001398  94.9366 265.1783 15.06406144175495
1 44718U 19074F   23016.01882684  .00001075  00000-0  91073-4 0  9991
2 44718  53.0546 303.2078 0001441  99.4346 260.6805 15.06402309175782
1 44718U 19074F   23016.48325725 -.00000439  00000-0 -10569-4 0  9996
2 44718  53.0545 301.1232 0001399  94.3179 265.7970 15.06400917175681
1 44718U 19074F   23016.81501670 -.00003232  00000-0 -19833-3 0  9994
2 44718  53.0536 299.6331 0001096 115.7702 244.3400 15.06368303175735
1 44718U 19074F   23016.81501670 -.00003232  00000-0 -19833-3 0  9994
2 44718  53.0536 299.6331 0001096 115.7702 244.3400 15.06368303175904
1 44718U 19074F   23017.14674186 -.00002072  00000-0 -12028-3 0  9994
2 44718  53.0533 298.1462 0001730  97.2838 262.8348 15.06390553175952
1 44718U 19074F   23017.47847468 -.00001147  00000-0 -58118-4 0  9998
2 44718  53.0535 296.6577 0001737  90.6884 269.4304 15.06393408175833
1 44718U 19074F   23018.14193787 -.00000797  00000-0 -34648-4 0  9993
2 44718  53.0528 293.6790 0001085 112.4826 247.6278 15.06402113175937
1 44718U 19074F   23018.14193787 -.00000797  00000-0 -34648-4 0  9993
2 44718  53.0528 293.6790 0001085 112.4826 247.6278 15.06402113176107
1 44718U 19074F   23019.13713014  .00005410  00000-0  38167-3 0  9998
2 44718  53.0529 289.2112 0001107 110.8364 249.2744 15.06412862176255
1 44718U 19074F   23019.46888815  .00001477  00000-0  11809-3 0  9999
2 44718  53.0528 287.7224 0001504  95.7708 264.3452 15.06388851176136
1 44718U 19074F   23019.46888815  .00001477  00000-0  11809-3 0  9999
2 44718  53.0528 287.7224 0001504  95.7708 264.3452 15.06388851176305
1 44718U 19074F   23020.13234930  .00000562  00000-0  56612-4 0  9994
2 44718  53.0522 284.7431 0001223 103.0187 257.0939 15.06399959176409
1 44718U 19074F   23020.46408724 -.00000066  00000-0  14486-4 0  9997
2 44718  53.0532 283.2524 0001177 108.3830 251.7287 15.06397015176282
1 44718U 19074F   23021.12754104  .00000719  00000-0  67149-4 0  9995
2 44718  53.0527 280.2747 0001244  98.1056 262.0074 15.06417316176557
1 44718U 19074F   23021.72467509  .00004070  00000-0  29206-3 0  9996
2 44718  53.0529 277.5941 0000924  94.1351 265.9743 15.06389560176646
1 44718U 19074F   23023.05160979 -.00000078  00000-0  13649-4 0  9995
2 44718  53.0532 271.6362 0001073 107.4699 252.6408 15.06402642176841
1 44718U 19074F   23023.78143013  .00000135  00000-0  27961-4 0  9990
2 44718  53.0529 268.3603 0001089 118.7341 241.3757 15.06393375176950
1 44718U 19074F   23024.11315887  .00003232  00000-0  23580-3 0  9991
2 44718  53.0525 266.8709 0001201 111.0838 249.0279 15.06397699177003
1 44718U 19074F   23025.37375291  .00000539  00000-0  55098-4 0  9992
2 44718  53.0523 261.2124 0001070  99.8154 260.2955 15.06396446177026
1 44718U 19074F   23025.37375291  .00000539  00000-0  55098-4 0  9992
2 44718  53.0523 261.2124 0001070  99.8154 260.2955 15.06396446177194
1 44718U 19074F   23025.83818675  .00000253  00000-0  35867-4 0  9996
2 44718  53.0522 259.1274 0000960 104.1588 255.9508 15.06389445177098
1 44718U 19074F   23025.83818675  .00000253  00000-0  35867-4 0  9996
2 44718  53.0522 259.1274 0000960 104.1588 255.9508 15.06389445177267
1 44718U 19074F   23025.90453178 -.00000331  00000-0 -33161-5 0  9992
2 44718  53.0521 258.8288 0001043 110.7028 249.4073 15.06394393177108
1 44718U 19074F   23026.89972697  .00000823  00000-0  74113-4 0  9998
2 44718  53.0518 254.3616 0001061  94.3722 265.7388 15.06403269177426
1 44718U 19074F   23027.03241772  .00001158  00000-0  96599-4 0  9992
2 44718  53.0519 253.7652 0001074  95.2907 264.8205 15.06406081177275
1 44718U 19074F   23027.76223964  .00001027  00000-0  87844-4 0  9993
2 44718  53.0531 250.4856 0001174 106.9358 253.1759 15.06394658177552
1 44718U 19074F   23027.89493841  .00003769  00000-0  27190-3 0  9992
2 44718  53.0518 249.8936 0001056  97.8149 262.2960 15.06383440177409
1 44718U 19074F   23028.02762678  .00003097  00000-0  22675-3 0  9992
2 44718  53.0519 249.2979 0001000 101.8532 258.2569 15.06390082177424
1 44718U 19074F   23028.89013724 -.00000490  00000-0 -14015-4 0  9994
2 44718  53.0520 245.4245 0001130  90.4158 269.6961 15.06399876177557
1 44718U 19074F   23028.89013724 -.00000490  00000-0 -14015-4 0  9994
2 44718  53.0520 245.4245 0001130  90.4158 269.6961 15.06399876177726
1 44718U 19074F   23029.88534071  .00000275  00000-0  37346-4 0  9998
2 44718  53.0518 240.9574 0001151  89.9050 270.2070 15.06397230177704
1 44718U 19074F   23030.01803369  .00000334  00000-0  41284-4 0  9996
2 44718  53.0518 240.3615 0001160  88.2547 271.8574 15.06398352177721
1 44718U 19074F   23030.01803369  .00000334  00000-0  41284-4 0  9996
2 44718  53.0518 240.3615 0001160  88.2547 271.8574 15.06398352177899
1 44718U 19074F   23031.61036633  .00006173  00000-0  43332-3 0  9997
2 44718  53.0516 233.2124 0001314  97.2866 262.8272 15.06365630177964
1 44718U 19074F   23031.80940964  .00006790  00000-0  47473-3 0  9994
2 44718  53.0517 232.3188 0001328  99.7710 260.3429 15.06364522177994
1 44718U 19074F   23031.80940964  .00006790  00000-0  47473-3 0  9994
2 44718  53.0517 232.3188 0001328  99.7710 260.3429 15.06364522178164
